      2.10          N: GNSS NAV DATA                        RINEX VERSION / TYPE
fic2rin                                 10/29/2024 00:59:01 PGM / RUN BY / DATE
                                                            END OF HEADER
21 24 10 28 21 59 44.0  .987430103123D-04 -.909494701773D-12  .000000000000D+00
     .300000000000D+01 -.419062500000D+02  .435232414891D-08 -.604047346688D+00
    -.235810875893D-05  .254887602059D-01  .983849167824D-05  .515363827896D+04
     .165584000000D+06 -.800937414169D-07 -.826633606459D+00 -.551342964172D-06
     .961088977854D+00  .196343750000D+03 -.500089261719D+00 -.814998233662D-08
    -.165006873199D-09  .100000000000D+01  .233800000000D+04  .000000000000D+00
     .240000000000D+01  .000000000000D+00 -.102445483208D-07  .300000000000D+01
     .158400000000D+06  .400000000000D+01
13 24 10 28 21 59 44.0  .683602876961D-03  .170530256582D-11  .000000000000D+00
     .680000000000D+02 -.506875000000D+02  .465555106525D-08 -.724317493428D+00
    -.242702662945D-05  .874731992371D-02  .535696744919D-05  .515368518066D+04
     .165584000000D+06  .577419996262D-07  .150312234502D+01  .141561031342D-06
     .971935542571D+00  .283750000000D+03  .972286060669D+00 -.831927510263D-08
    -.176078762959D-09  .100000000000D+01  .233800000000D+04  .000000000000D+00
     .240000000000D+01  .000000000000D+00 -.116415321827D-07  .680000000000D+02
     .158400000000D+06  .400000000000D+01
31 24 10 28 21 59 44.0 -.222678761929D-03  .568434188608D-12  .000000000000D+00
     .140000000000D+02 -.268437500000D+02  .455161816459D-08  .201663018186D+01
    -.139512121677D-05  .106947770109D-01  .114254653454D-04  .515359462547D+04
     .165584000000D+06 -.245869159698D-06  .242994806546D+01 -.126659870148D-06
     .954436812856D+00  .159031250000D+03  .760082880983D+00 -.792997317236D-08
    -.144648882349D-09  .100000000000D+01  .233800000000D+04  .000000000000D+00
     .240000000000D+01  .000000000000D+00 -.130385160446D-07  .140000000000D+02
     .158400000000D+06  .400000000000D+01
19 24 10 28 21 59 44.0  .556146260351D-03  .454747350886D-11  .000000000000D+00
     .710000000000D+02 -.381562500000D+02  .478484216502D-08  .140860003631D+01
    -.195018947124D-05  .997989007737D-02  .386126339436D-05  .515374231339D+04
     .165584000000D+06  .165775418282D-06 -.167692355501D+01  .126659870148D-06
     .965493180506D+00  .304343750000D+03  .267123619827D+01 -.831713215622D-08
    -.512878506306D-09  .100000000000D+01  .233800000000D+04  .000000000000D+00
     .240000000000D+01  .000000000000D+00 -.153668224812D-07  .710000000000D+02
     .158400000000D+06  .400000000000D+01
5  24 10 28 22  0  0.0 -.191263388842D-03 -.125055521494D-11  .000000000000D+00
     .460000000000D+02  .451875000000D+02  .411409994020D-08 -.956183737462D-01
     .246986746788D-05  .574597006198D-02  .847131013870D-05  .515369212723D+04
     .165600000000D+06 -.987201929092D-07  .265113093767D+00  .465661287308D-07
     .973801735962D+00  .223406250000D+03  .133699866517D+01 -.798426114795D-08
     .500735143343D-09  .100000000000D+01  .233800000000D+04  .000000000000D+00
     .240000000000D+01  .000000000000D+00 -.107102096081D-07  .460000000000D+02
     .158400000000D+06  .400000000000D+01
10 24 10 28 22  0  0.0 -.175175257027D-03 -.138697942020D-10  .000000000000D+00
     .290000000000D+02  .442187500000D+02  .388373320165D-08  .155772096542D+01
     .233203172684D-05  .986714824103D-02  .818073749542D-05  .515368678093D+04
     .165600000000D+06 -.230967998505D-06  .315902748012D+00  .670552253723D-07
     .986519103726D+00  .236593750000D+03 -.236859037732D+01 -.788675708652D-08
     .394302138552D-09  .100000000000D+01  .233800000000D+04  .000000000000D+00
     .240000000000D+01  .000000000000D+00  .232830643654D-08  .290000000000D+02
     .158400000000D+06  .400000000000D+01
32 24 10 28 22  0  0.0 -.581080093980D-03  .477484718431D-11  .000000000000D+00
     .590000000000D+02 -.330000000000D+02  .483127267047D-08  .286339991210D+00
    -.184401869774D-05  .795439886861D-02  .461190938950D-05  .515374062157D+04
     .165600000000D+06 -.100582838058D-06  .135004707959D+01  .763684511185D-07
     .962673720436D+00  .293531250000D+03 -.213330290040D+01 -.844320883640D-08
    -.882179603464D-10  .100000000000D+01  .233800000000D+04  .000000000000D+00
     .240000000000D+01  .000000000000D+00  .931322574615D-09  .590000000000D+02
     .158400000000D+06  .400000000000D+01
23 24 10 28 22  0  0.0  .351543538272D-03  .807176547823D-11  .000000000000D+00
     .330000000000D+02  .502187500000D+02  .391052003171D-08  .272495151166D+01
     .270828604698D-05  .485040841158D-02  .819563865662D-05  .515361899567D+04
     .165600000000D+06 -.111758708954D-06  .286183189799D+00 -.521540641785D-07
     .981658963636D+00  .230250000000D+03 -.292174330727D+01 -.776818071876D-08
     .495377777330D-09  .100000000000D+01  .233800000000D+04  .000000000000D+00
     .240000000000D+01  .000000000000D+00 -.838190317154D-08  .330000000000D+02
     .158400000000D+06  .400000000000D+01
22 24 10 28 22  0  0.0 -.749798491597D-04 -.318323145621D-11  .000000000000D+00
     .740000000000D+02  .718750000000D+02  .490984737199D-08  .679726613685D-01
     .374950468540D-05  .139058143832D-01  .684522092342D-05  .515368414116D+04
     .165600000000D+06 -.726431608200D-07 -.273886414933D+01 -.154599547386D-06
     .960530663946D+00  .250687500000D+03 -.109710982081D+01 -.853464121635D-08
     .357514891930D-09  .100000000000D+01  .233800000000D+04  .000000000000D+00
     .240000000000D+01  .000000000000D+00 -.111758708954D-07  .740000000000D+02
     .158400000000D+06  .400000000000D+01
12 24 10 28 22  0  0.0 -.548332463950D-03 -.261479726760D-11  .000000000000D+00
     .920000000000D+02  .796250000000D+02  .462197823823D-08  .236131419584D+01
     .396929681301D-05  .879252434243D-02  .713579356670D-05  .515357735443D+04
     .165600000000D+06  .204890966415D-07 -.275983062687D+01 -.154599547386D-06
     .961797962083D+00  .236718750000D+03  .146469278908D+01 -.802640576059D-08
     .262153776900D-09  .100000000000D+01  .233800000000D+04  .000000000000D+00
     .240000000000D+01  .000000000000D+00 -.125728547573D-07  .920000000000D+02
     .158400000000D+06  .400000000000D+01
6  24 10 28 22  0  0.0 -.726482830942D-04 -.283080225927D-10  .000000000000D+00
     .600000000000D+02 -.362500000000D+02  .362336521342D-08 -.230946819039D+01
    -.189989805222D-05  .319412990939D-02  .114981085062D-04  .515372313309D+04
     .165600000000D+06 -.186264514923D-08 -.716790815020D+00  .577419996262D-07
     .989583443117D+00  .173656250000D+03 -.769883968369D+00 -.759567353315D-08
    -.244653047924D-09  .100000000000D+01  .233800000000D+04  .000000000000D+00
     .240000000000D+01  .000000000000D+00  .372529029846D-08  .600000000000D+02
     .158400000000D+06  .400000000000D+01
3  24 10 28 22  0  0.0  .584151130170D-03  .111413100967D-10  .000000000000D+00
     .700000000000D+02  .498750000000D+02  .382765943738D-08  .249660720633D+01
     .255927443504D-05  .567269755993D-02  .753067433834D-05  .515363429451D+04
     .165600000000D+06  .109896063805D-06  .318439314836D+00 -.428408384323D-07
     .986883188926D+00  .246281250000D+03  .116289696742D+01 -.772139305559D-08
     .500377985609D-09  .100000000000D+01  .233800000000D+04  .000000000000D+00
     .240000000000D+01  .000000000000D+00  .139698386192D-08  .700000000000D+02
     .158400000000D+06  .400000000000D+01
7  24 10 28 22  0  0.0 -.238991342485D-04  .284217094304D-11  .000000000000D+00
     .470000000000D+02 -.204687500000D+02  .449054419205D-08  .307766260395D+01
    -.124797224998D-05  .188033317681D-01  .119935721159D-04  .515360652733D+04
     .165600000000D+06  .117346644402D-06  .240778553389D+01 -.268220901489D-06
     .950485419921D+00  .140843750000D+03 -.209620552447D+01 -.766746223772D-08
    -.152863510236D-09  .100000000000D+01  .233800000000D+04  .000000000000D+00
     .240000000000D+01  .000000000000D+00 -.107102096081D-07  .470000000000D+02
     .158400000000D+06  .400000000000D+01
4  24 10 28 22  0  0.0  .469883903861D-03  .659383658785D-11  .000000000000D+00
     .140000000000D+03 -.400625000000D+02  .469948146655D-08 -.717991743489D+00
    -.210106372833D-05  .310283433646D-02  .480562448502D-05  .515368926430D+04
     .165600000000D+06  .391155481339D-07  .139554958258D+01  .558793544769D-08
     .965611075611D+00  .285593750000D+03 -.300780760589D+01 -.827391607039D-08
    -.992898501065D-10  .100000000000D+01  .233800000000D+04  .000000000000D+00
     .240000000000D+01  .000000000000D+00 -.465661287308D-08  .908000000000D+03
     .158400000000D+06  .400000000000D+01
9  24 10 28 22  0  0.0  .419011805207D-03  .167119651451D-10  .000000000000D+00
     .510000000000D+02 -.367812500000D+02  .486948854803D-08  .116461165955D+00
    -.208616256714D-05  .319137307815D-02  .450760126114D-05  .515356728745D+04
     .165600000000D+06 -.242143869400D-07  .133481203274D+01 -.931322574615D-08
     .959348510568D+00  .288906250000D+03  .200105795872D+01 -.841427905993D-08
    -.871464871438D-10  .100000000000D+01  .233800000000D+04  .000000000000D+00
     .240000000000D+01  .000000000000D+00  .465661287308D-09  .510000000000D+02
     .158400000000D+06  .400000000000D+01
8  24 10 28 22  0  0.0  .398036092520D-03  .109139364213D-10  .000000000000D+00
     .510000000000D+02 -.260625000000D+02  .516557230968D-08 -.402616684658D+00
    -.145472586155D-05  .985015078913D-02  .352971255779D-05  .515369675446D+04
     .165600000000D+06  .106170773506D-06 -.181838514976D+01  .119209289551D-06
     .950531002986D+00  .304281250000D+03  .374297566219D+00 -.865678916144D-08
    -.344300055765D-09  .100000000000D+01  .233800000000D+04  .000000000000D+00
     .240000000000D+01  .000000000000D+00  .465661287308D-08  .510000000000D+02
     .158400000000D+06  .400000000000D+01
